[{"OBJECT_NAME":"LAPAN-TUBSAT","OBJECT_ID":"2007-001A","EPOCH":"2026-03-09T23:52:11.769024","MEAN_MOTION":14.8582984,"ECCENTRICITY":0.0012806,"INCLINATION":98.1337,"RA_OF_ASC_NODE":66,"ARG_OF_PERICENTER":143.3613,"MEAN_ANOMALY":216.848,"EPHEMERIS_TYPE":0,"CLASSIFICATION_TYPE":"U","NORAD_CAT_ID":29709,"ELEMENT_SET_NO":999,"REV_AT_EPOCH":3642,"BSTAR":8.085944e-5,"MEAN_MOTION_DOT":6.47e-6,"MEAN_MOTION_DDOT":0},{"OBJECT_NAME":"DELTA 1 DEB","OBJECT_ID":"1977-065FR","EPOCH":"2026-03-09T05:35:40.773120","MEAN_MOTION":14.28278383,"ECCENTRICITY":0.04283398,"INCLINATION":29.171,"RA_OF_ASC_NODE":124.9449,"ARG_OF_PERICENTER":345.5547,"MEAN_ANOMALY":13.3121,"EPHEMERIS_TYPE":0,"CLASSIFICATION_TYPE":"U","NORAD_CAT_ID":14563,"ELEMENT_SET_NO":999,"REV_AT_EPOCH":77321,"BSTAR":0.00069118511,"MEAN_MOTION_DOT":4.927e-5,"MEAN_MOTION_DDOT":0}]
